      2.10          N: GNSS NAV DATA                        RINEX VERSION / TYPE
fic2rin                                 05/29/2022 00:17:45 PGM / RUN BY / DATE
                                                            END OF HEADER
8  22  5 28  1 59 44.0 -.697555951774D-04 -.147792889038D-11  .000000000000D+00
     .360000000000D+02 -.359062500000D+02  .464233622908D-08  .154856146563D+01
    -.185891985893D-05  .743785954546D-02  .163912773132D-05  .515376519394D+04
     .525584000000D+06 -.558793544769D-07  .153523356217D+01  .931322574615D-07
     .963273557810D+00  .349750000000D+03  .170181027557D+00 -.844499462507D-08
    -.185364864048D-09  .100000000000D+01  .221100000000D+04  .000000000000D+00
     .240000000000D+01  .000000000000D+00  .512227416039D-08  .360000000000D+02
     .518400000000D+06  .400000000000D+01
29 22  5 28 14  0  0.0 -.518324784935D-03 -.386535248253D-11  .000000000000D+00
     .920000000000D+02 -.373437500000D+02  .438446834499D-08  .170407492396D+01
    -.199861824512D-05  .218353513628D-02  .128336250782D-05  .515370176125D+04
     .568800000000D+06 -.149011611938D-07  .163162260116D+01 -.111758708954D-06
     .980546415900D+00  .359625000000D+03  .227804233134D+01 -.825855828782D-08
    -.281440294547D-09  .100000000000D+01  .221100000000D+04  .000000000000D+00
     .240000000000D+01  .000000000000D+00 -.102445483208D-07  .920000000000D+02
     .561600000000D+06  .400000000000D+01
23 22  5 28 14  0  0.0 -.247205607593D-04 -.227373675443D-11  .000000000000D+00
     .120000000000D+03  .165625000000D+02  .411409994020D-08 -.134756569550D+01
     .933185219765D-06  .217343890108D-02  .945851206779D-05  .515370764923D+04
     .568800000000D+06 -.156462192535D-06 -.266051673480D+01 -.502914190292D-07
     .968979731221D+00  .204312500000D+03  .299683201911D+01 -.767996275842D-08
     .508949771229D-09  .100000000000D+01  .221100000000D+04  .000000000000D+00
     .240000000000D+01  .000000000000D+00 -.838190317154D-08  .120000000000D+03
     .561600000000D+06  .400000000000D+01
24 22  5 28 14  0  0.0  .232575926930D-03 -.750333128963D-11  .000000000000D+00
     .950000000000D+02 -.156250000000D+00  .511164149181D-08 -.296484719516D+00
     .130385160446D-06  .124957618536D-01  .100061297417D-04  .515368932343D+04
     .568800000000D+06  .316649675369D-07 -.617111550385D+00  .184401869774D-06
     .934325277804D+00  .177562500000D+03  .816316831673D+00 -.839249243814D-08
    -.356086260993D-09  .100000000000D+01  .221100000000D+04  .000000000000D+00
     .240000000000D+01  .000000000000D+00  .279396772385D-08  .950000000000D+02
     .561600000000D+06  .400000000000D+01
21 22  5 28 14  0  0.0  .161236617714D-03  .113686837722D-12  .000000000000D+00
     .870000000000D+02 -.128406250000D+03  .430660795894D-08  .172853654247D+01
    -.657513737679D-05  .242606356042D-01  .783056020737D-05  .515375245857D+04
     .568800000000D+06  .420957803726D-06  .252368759157D+01  .119209289551D-06
     .960331490576D+00  .218031250000D+03 -.944985141990D+00 -.771103548129D-08
    -.503592405216D-09  .100000000000D+01  .221100000000D+04  .000000000000D+00
     .240000000000D+01  .000000000000D+00 -.102445483208D-07  .870000000000D+02
     .561600000000D+06  .400000000000D+01
19 22  5 28 14  0  0.0  .163253862411D-03  .500222085975D-11  .000000000000D+00
     .720000000000D+02 -.403437500000D+02  .441768401427D-08 -.235651469224D+01
    -.191107392311D-05  .925212027505D-02  .123120844364D-05  .515370038414D+04
     .568800000000D+06  .316649675369D-07  .166319618421D+01  .186264514923D-06
     .977313957963D+00  .365312500000D+03  .207094531068D+01 -.814391065514D-08
    -.209294432239D-09  .100000000000D+01  .221100000000D+04  .000000000000D+00
     .240000000000D+01  .000000000000D+00 -.158324837685D-07  .720000000000D+02
     .561600000000D+06  .400000000000D+01
20 22  5 28 14  0  0.0  .513833481818D-03 -.102318153949D-11  .000000000000D+00
     .400000000000D+02 -.437500000000D+00  .472055377287D-08  .447088440445D+00
     .186264514923D-08  .478193804156D-02  .991113483906D-05  .515358461952D+04
     .568800000000D+06  .158324837685D-06 -.278999824471D+01  .279396772385D-07
     .943485684606D+00  .180500000000D+03 -.312158610047D+01 -.809105131048D-08
     .455733268834D-09  .100000000000D+01  .221100000000D+04  .000000000000D+00
     .240000000000D+01  .000000000000D+00 -.838190317154D-08  .400000000000D+02
     .561600000000D+06  .400000000000D+01
26 22  5 28 14  0  0.0  .208667479455D-03  .250111042988D-11  .000000000000D+00
     .840000000000D+02  .130062500000D+03  .500949437983D-08 -.285947519987D+01
     .661425292492D-05  .692575238645D-02  .706128776073D-05  .515376203346D+04
     .568800000000D+06 -.521540641785D-07  .453220153319D+00 -.968575477600D-07
     .937885168990D+00  .234593750000D+03  .390137109839D+00 -.822177104119D-08
     .291440711104D-09  .100000000000D+01  .221100000000D+04  .000000000000D+00
     .240000000000D+01  .000000000000D+00  .698491930962D-08  .840000000000D+02
     .561600000000D+06  .400000000000D+01
22 22  5 28 14  0  0.0  .266488175839D-03  .625277607469D-11  .000000000000D+00
     .730000000000D+02 -.190625000000D+02  .480770026001D-08  .145125709196D+01
    -.108219683170D-05  .133934897603D-01  .545382499695D-05  .515368732452D+04
     .568800000000D+06 -.255182385445D-06 -.150250963982D+01 -.216066837311D-06
     .960964259699D+00  .273843750000D+03 -.185044875039D+01 -.824677208259D-08
    -.146434671020D-09  .100000000000D+01  .221100000000D+04  .000000000000D+00
     .240000000000D+01  .000000000000D+00 -.838190317154D-08  .730000000000D+02
     .561600000000D+06  .400000000000D+01
27 22  5 28 14  0  0.0  .209352001548D-03  .488853402203D-11  .000000000000D+00
     .920000000000D+02 -.282812500000D+02  .475484091535D-08  .161128533492D+01
    -.145100057125D-05  .105410849210D-01  .163353979588D-05  .515365322495D+04
     .568800000000D+06 -.260770320892D-06  .155515337449D+01  .163912773132D-06
     .972001164687D+00  .357750000000D+03  .684635915137D+00 -.849678249652D-08
    -.202151277555D-09  .100000000000D+01  .221100000000D+04  .000000000000D+00
     .340000000000D+01  .000000000000D+00  .186264514923D-08  .920000000000D+02
     .561600000000D+06  .400000000000D+01
17 22  5 28 14  0  0.0  .618165358901D-03  .454747350886D-11  .000000000000D+00
     .500000000000D+02 -.357187500000D+02  .443732768965D-08  .157207117213D+01
    -.227987766266D-05  .135168102570D-01  .105984508991D-05  .515355587769D+04
     .568800000000D+06  .894069671631D-07  .161837441796D+01 -.284984707832D-06
     .978482760752D+00  .368187500000D+03 -.149307553421D+01 -.825534386821D-08
    -.224295057075D-09  .100000000000D+01  .221100000000D+04  .000000000000D+00
     .240000000000D+01  .000000000000D+00 -.111758708954D-07  .500000000000D+02
     .561600000000D+06  .400000000000D+01
13 22  5 28 14  0  0.0  .319693237543D-03  .682121026330D-11  .000000000000D+00
     .960000000000D+02 -.193750000000D+02  .467055169008D-08  .115874659129D+01
    -.110454857349D-05  .593489327002D-02  .516325235367D-05  .515366773224D+04
     .568800000000D+06 -.558793544769D-07 -.145014280921D+01  .204890966415D-07
     .968240154449D+00  .283218750000D+03  .917521921328D+00 -.818176937496D-08
    -.211080220910D-09  .100000000000D+01  .221100000000D+04  .000000000000D+00
     .240000000000D+01  .000000000000D+00 -.116415321827D-07  .960000000000D+02
     .561600000000D+06  .400000000000D+01
14 22  5 28 14  0  0.0 -.110045541078D-03 -.125055521494D-11  .000000000000D+00
     .210000000000D+02  .124156250000D+03  .474626912973D-08 -.191155027426D+01
     .633858144283D-05  .192887231242D-02  .694207847118D-05  .515366473961D+04
     .568800000000D+06  .223517417908D-07  .547146437017D+00 -.104308128357D-06
     .952921415516D+00  .243093750000D+03  .311545176604D+01 -.824320050525D-08
     .320013329840D-09  .100000000000D+01  .221100000000D+04  .000000000000D+00
     .240000000000D+01  .000000000000D+00 -.791624188423D-08  .533000000000D+03
     .561600000000D+06  .400000000000D+01
11 22  5 28 14  0  0.0 -.198944471776D-04  .375166564481D-11  .000000000000D+00
     .120000000000D+03 -.108562500000D+03  .424660545959D-08  .158065741577D+01
    -.555999577045D-05  .399561831728D-03  .906363129616D-05  .515358441353D+04
     .568800000000D+06  .130385160446D-07  .265871637565D+01  .298023223877D-07
     .963181434933D+00  .206906250000D+03  .281559077935D+01 -.788568561332D-08
    -.204651381694D-09  .100000000000D+01  .221100000000D+04  .000000000000D+00
     .240000000000D+01  .000000000000D+00 -.838190317154D-08  .376000000000D+03
     .561600000000D+06  .400000000000D+01
18 22  5 28 14  0  0.0  .157927162945D-03 -.104591890704D-10  .000000000000D+00
     .900000000000D+02 -.102281250000D+03  .399123767964D-08 -.248331545011D+00
    -.557675957680D-05  .232557021081D-02  .971741974354D-05  .515373719597D+04
     .568800000000D+06  .707805156708D-07  .262364635841D+01 -.111758708954D-07
     .971795329188D+00  .200500000000D+03  .301463059876D+01 -.777710966212D-08
    -.299298181256D-09  .100000000000D+01  .221100000000D+04  .000000000000D+00
     .240000000000D+01  .000000000000D+00 -.838190317154D-08  .858000000000D+03
     .561600000000D+06  .400000000000D+01
